[{"OBJECT_NAME":"STARLINK-34756","OBJECT_ID":"2025-152H","EPOCH":"2026-03-09T14:10:58.753920","MEAN_MOTION":15.02045938,"ECCENTRICITY":0.0002076,"INCLINATION":97.6002,"RA_OF_ASC_NODE":285.448,"ARG_OF_PERICENTER":81.1247,"MEAN_ANOMALY":279.0213,"EPHEMERIS_TYPE":0,"CLASSIFICATION_TYPE":"U","NORAD_CAT_ID":64849,"ELEMENT_SET_NO":999,"REV_AT_EPOCH":3540,"BSTAR":0.023165,"MEAN_MOTION_DOT":0.00317741,"MEAN_MOTION_DDOT":0},{"OBJECT_NAME":"NOAA 17 DEB","OBJECT_ID":"2002-032BW","EPOCH":"2026-03-08T22:40:23.580768","MEAN_MOTION":15.05196658,"ECCENTRICITY":0.00149213,"INCLINATION":98.7181,"RA_OF_ASC_NODE":121.0481,"ARG_OF_PERICENTER":217.4424,"MEAN_ANOMALY":142.5761,"EPHEMERIS_TYPE":0,"CLASSIFICATION_TYPE":"U","NORAD_CAT_ID":48737,"ELEMENT_SET_NO":999,"REV_AT_EPOCH":26108,"BSTAR":0.0055556624,"MEAN_MOTION_DOT":0.00080221,"MEAN_MOTION_DDOT":0}]
